GLOBALSTAR M075 [+]     
1 37192U 10054E   23323.40476022 -.00000100  00000+0  18912-4 0  9996
2 37192  51.9922 134.6703 0001103  95.5514 268.7941 12.62267629603290
GLOBALSTAR M073 [+]     
1 37193U 10054F   23323.56473769 -.00000093  00000+0  61638-4 0  9993
2 37193  52.0074  47.5589 0000623 122.2499 251.2942 12.62269283605143
GLOBALSTAR M083 [+]     
1 37739U 11033A   23323.61387456 -.00000088  00000+0  89554-4 0  9991
2 37739  51.9879 356.9285 0000505  73.2493 104.7053 12.62262975574161
GLOBALSTAR M088 [+]     
1 37740U 11033B   23323.58598292 -.00000089  00000+0  80016-4 0  9996
2 37740  51.9739 262.9896 0000978  60.7824 109.9421 12.62267568569708
GLOBALSTAR M091 [+]     
1 37741U 11033C   23323.52036221 -.00000088  00000+0  90115-4 0  9990
2 37741  51.9994 225.7162 0001221  68.1226 103.4765 12.62268688570486
GLOBALSTAR M085 [+]     
1 37742U 11033D   23323.63534328 -.00000105  00000+0 -75987-5 0  9996
2 37742  51.9847 176.9142 0001281  80.1516 314.6020 12.62265363571018
GLOBALSTAR M081 [+]     
1 37743U 11033E   23323.37486236 -.00000097  00000+0  40271-4 0  9998
2 37743  51.9939 180.1392 0001366  86.7710  83.7615 12.62267032571128
GLOBALSTAR M089 [+]     
1 37744U 11033F   23323.63116459 -.00000105  00000+0 -52911-5 0  9991
2 37744  51.9904 133.6926 0000989 112.9615 322.9303 12.62269709572006
